{
  "type": "FeatureCollection",
  "features": [
    {
      "type": "Feature",
      "properties": {
        "norad_id": 35744,
        "name": "IRIDIUM 33 DEB",
        "group": "iridium-33-debris",
        "lat": -29.588639270206382,
        "lon": 148.37082735912048,
        "alt_km": 650.2231464550005,
        "timestamp": "2025-12-10T20:49:52.938419+00:00",
        "meta_object_name": "IRIDIUM 33 DEB",
        "meta_object_id": "1997-051RX",
        "meta_epoch": "2025-12-09T22:39:23.810112",
        "meta_mean_motion": 14.7093186,
        "meta_eccentricity": 0.00199873,
        "meta_inclination": 86.3295,
        "meta_ra_of_asc_node": 326.6992,
        "meta_arg_of_pericenter": 202.5646,
        "meta_mean_anomaly": 157.4694,
        "meta_ephemeris_type": 0,
        "meta_classification_type": "U",
        "meta_norad_cat_id": 35744,
        "meta_element_set_no": 999,
        "meta_rev_at_epoch": 87290,
        "meta_bstar": 0.0016996906,
        "meta_mean_motion_dot": 0.00010469,
        "meta_mean_motion_ddot": 0,
        "tle_line1": "1 35744U 97051RX  25343.94402558  .00010469  00000+0  16997-2 0  9992",
        "tle_line2": "2 35744  86.3295 326.6992 0019987 202.5646 157.4694 14.70931860872905"
      },
      "geometry": {
        "type": "Point",
        "coordinates": [
          148.37082735912048,
          -29.588639270206382
        ]
      }
    },
    {
      "type": "Feature",
      "properties": {
        "norad_id": 35797,
        "name": "IRIDIUM 33 DEB",
        "group": "iridium-33-debris",
        "lat": -38.51338218451326,
        "lon": 153.75577444799399,
        "alt_km": 623.5973761615896,
        "timestamp": "2025-12-10T20:49:52.938430+00:00",
        "meta_object_name": "IRIDIUM 33 DEB",
        "meta_object_id": "1997-051SF",
        "meta_epoch": "2025-12-09T16:18:47.257632",
        "meta_mean_motion": 14.82622321,
        "meta_eccentricity": 0.00129609,
        "meta_inclination": 86.3364,
        "meta_ra_of_asc_node": 331.3786,
        "meta_arg_of_pericenter": 157.766,
        "meta_mean_anomaly": 202.4127,
        "meta_ephemeris_type": 0,
        "meta_classification_type": "U",
        "meta_norad_cat_id": 35797,
        "meta_element_set_no": 999,
        "meta_rev_at_epoch": 87295,
        "meta_bstar": 0.0027081228,
        "meta_mean_motion_dot": 0.00021904,
        "meta_mean_motion_ddot": 0,
        "tle_line1": "1 35797U 97051SF  25343.67971363  .00021904  00000+0  27081-2 0  9997",
        "tle_line2": "2 35797  86.3364 331.3786 0012960 157.7660 202.4127 14.82622321872954"
      },
      "geometry": {
        "type": "Point",
        "coordinates": [
          153.75577444799399,
          -38.51338218451326
        ]
      }
    },
    {
      "type": "Feature",
      "properties": {
        "norad_id": 35806,
        "name": "IRIDIUM 33 DEB",
        "group": "iridium-33-debris",
        "lat": -24.911298770784107,
        "lon": 19.75220758290091,
        "alt_km": 710.2615713758951,
        "timestamp": "2025-12-10T20:49:52.938440+00:00",
        "meta_object_name": "IRIDIUM 33 DEB",
        "meta_object_id": "1997-051SQ",
        "meta_epoch": "2025-12-06T09:49:43.789440",
        "meta_mean_motion": 14.5725267,
        "meta_eccentricity": 0.0016158,
        "meta_inclination": 86.344,
        "meta_ra_of_asc_node": 23.4162,
        "meta_arg_of_pericenter": 94.3917,
        "meta_mean_anomaly": 265.9138,
        "meta_ephemeris_type": 0,
        "meta_classification_type": "U",
        "meta_norad_cat_id": 35806,
        "meta_element_set_no": 999,
        "meta_rev_at_epoch": 86232,
        "meta_bstar": 0.0020153904,
        "meta_mean_motion_dot": 9.149e-05,
        "meta_mean_motion_ddot": 0,
        "tle_line1": "1 35806U 97051SQ  25340.40953460  .00009149  00000+0  20154-2 0  9995",
        "tle_line2": "2 35806  86.3440  23.4162 0016158  94.3917 265.9138 14.57252670862325"
      },
      "geometry": {
        "type": "Point",
        "coordinates": [
          19.75220758290091,
          -24.911298770784107
        ]
      }
    },
    {
      "type": "Feature",
      "properties": {
        "norad_id": 35809,
        "name": "IRIDIUM 33 DEB",
        "group": "iridium-33-debris",
        "lat": -36.52277700930682,
        "lon": 158.9273559067543,
        "alt_km": 644.1397254313624,
        "timestamp": "2025-12-10T20:49:52.938450+00:00",
        "meta_object_name": "IRIDIUM 33 DEB",
        "meta_object_id": "1997-051ST",
        "meta_epoch": "2025-12-06T06:48:24.450912",
        "meta_mean_motion": 14.75488502,
        "meta_eccentricity": 0.00096585,
        "meta_inclination": 86.3276,
        "meta_ra_of_asc_node": 338.2877,
        "meta_arg_of_pericenter": 270.8385,
        "meta_mean_anomaly": 89.1727,
        "meta_ephemeris_type": 0,
        "meta_classification_type": "U",
        "meta_norad_cat_id": 35809,
        "meta_element_set_no": 999,
        "meta_rev_at_epoch": 86712,
        "meta_bstar": 0.0029776157,
        "meta_mean_motion_dot": 0.00020329,
        "meta_mean_motion_ddot": 0,
        "tle_line1": "1 35809U 97051ST  25340.28361633  .00020329  00000+0  29776-2 0  9991",
        "tle_line2": "2 35809  86.3276 338.2877 0009658 270.8385  89.1727 14.75488502867120"
      },
      "geometry": {
        "type": "Point",
        "coordinates": [
          158.9273559067543,
          -36.52277700930682
        ]
      }
    },
    {
      "type": "Feature",
      "properties": {
        "norad_id": 35846,
        "name": "IRIDIUM 33 DEB",
        "group": "iridium-33-debris",
        "lat": -36.4193816161872,
        "lon": -117.67951000708004,
        "alt_km": 744.5061620692886,
        "timestamp": "2025-12-10T20:49:52.938460+00:00",
        "meta_object_name": "IRIDIUM 33 DEB",
        "meta_object_id": "1997-051SW",
        "meta_epoch": "2025-12-09T15:32:33.553248",
        "meta_mean_motion": 14.43141071,
        "meta_eccentricity": 0.00185243,
        "meta_inclination": 86.3746,
        "meta_ra_of_asc_node": 60.1601,
        "meta_arg_of_pericenter": 179.7602,
        "meta_mean_anomaly": 180.3611,
        "meta_ephemeris_type": 0,
        "meta_classification_type": "U",
        "meta_norad_cat_id": 35846,
        "meta_element_set_no": 999,
        "meta_rev_at_epoch": 71284,
        "meta_bstar": 0.0010426012,
        "meta_mean_motion_dot": 3.526e-05,
        "meta_mean_motion_ddot": 0,
        "tle_line1": "1 35846U 97051SW  25343.64761057  .00003526  00000+0  10426-2 0  9991",
        "tle_line2": "2 35846  86.3746  60.1601 0018524 179.7602 180.3611 14.43141071712846"
      },
      "geometry": {
        "type": "Point",
        "coordinates": [
          -117.67951000708004,
          -36.4193816161872
        ]
      }
    },
    {
      "type": "Feature",
      "properties": {
        "norad_id": 35848,
        "name": "IRIDIUM 33 DEB",
        "group": "iridium-33-debris",
        "lat": 30.505388774128054,
        "lon": -165.15588800002948,
        "alt_km": 629.4086024982007,
        "timestamp": "2025-12-10T20:49:52.938469+00:00",
        "meta_object_name": "IRIDIUM 33 DEB",
        "meta_object_id": "1997-051SY",
        "meta_epoch": "2025-12-06T20:19:25.547808",
        "meta_mean_motion": 14.78448907,
        "meta_eccentricity": 0.00071808,
        "meta_inclination": 86.3929,
        "meta_ra_of_asc_node": 18.7802,
        "meta_arg_of_pericenter": 219.4527,
        "meta_mean_anomaly": 140.6171,
        "meta_ephemeris_type": 0,
        "meta_classification_type": "U",
        "meta_norad_cat_id": 35848,
        "meta_element_set_no": 999,
        "meta_rev_at_epoch": 66603,
        "meta_bstar": 0.0027695976,
        "meta_mean_motion_dot": 0.0002026,
        "meta_mean_motion_ddot": 0,
        "tle_line1": "1 35848U 97051SY  25340.84682347  .00020260  00000+0  27696-2 0  9997",
        "tle_line2": "2 35848  86.3929  18.7802 0007180 219.4527 140.6171 14.78448907666032"
      },
      "geometry": {
        "type": "Point",
        "coordinates": [
          -165.15588800002948,
          30.505388774128054
        ]
      }
    },
    {
      "type": "Feature",
      "properties": {
        "norad_id": 35850,
        "name": "IRIDIUM 33 DEB",
        "group": "iridium-33-debris",
        "lat": 66.44695027512051,
        "lon": 156.67414041125681,
        "alt_km": 625.8620907326967,
        "timestamp": "2025-12-10T20:49:52.938480+00:00",
        "meta_object_name": "IRIDIUM 33 DEB",
        "meta_object_id": "1997-051TA",
        "meta_epoch": "2025-12-06T07:30:15.621984",
        "meta_mean_motion": 14.78601393,
        "meta_eccentricity": 0.00083892,
        "meta_inclination": 86.3487,
        "meta_ra_of_asc_node": 347.1693,
        "meta_arg_of_pericenter": 210.267,
        "meta_mean_anomaly": 149.8067,
        "meta_ephemeris_type": 0,
        "meta_classification_type": "U",
        "meta_norad_cat_id": 35850,
        "meta_element_set_no": 999,
        "meta_rev_at_epoch": 71262,
        "meta_bstar": 0.0028291764,
        "meta_mean_motion_dot": 0.00020775,
        "meta_mean_motion_ddot": 0,
        "tle_line1": "1 35850U 97051TA  25340.31268081  .00020775  00000+0  28292-2 0  9991",
        "tle_line2": "2 35850  86.3487 347.1693 0008389 210.2670 149.8067 14.78601393712623"
      },
      "geometry": {
        "type": "Point",
        "coordinates": [
          156.67414041125681,
          66.44695027512051
        ]
      }
    }
  ]
}